[
  {
    "CCSDS_OMM_VERS": "2.0",
    "COMMENT": "GENERATED VIA SPACE-TRACK.ORG API",
    "CREATION_DATE": "2021-12-03T17:32:05",
    "ORIGINATOR": "18 SPCS",
    "OBJECT_NAME": "THOR ABLESTAR DEB",
    "OBJECT_ID": "1961-015FF",
    "CENTER_NAME": "EARTH",
    "REF_FRAME": "TEME",
    "TIME_SYSTEM": "UTC",
    "MEAN_ELEMENT_THEORY": "SGP4",
    "EPOCH": "2021-12-03T11:35:22.078752",
    "MEAN_MOTION": "14.29009269",
    "ECCENTRICITY": "0.00639340",
    "INCLINATION": "66.8332",
    "RA_OF_ASC_NODE": "157.6685",
    "ARG_OF_PERICENTER": "357.9151",
    "MEAN_ANOMALY": "2.1671",
    "EPHEMERIS_TYPE": "0",
    "CLASSIFICATION_TYPE": "U",
    "NORAD_CAT_ID": "469",
    "ELEMENT_SET_NO": "999",
    "REV_AT_EPOCH": "11585",
    "BSTAR": "0.00013957000000",
    "MEAN_MOTION_DOT": "0.00000277",
    "MEAN_MOTION_DDOT": "0.0000000000000",
    "SEMIMAJOR_AXIS": "7173.181",
    "PERIOD": "100.769",
    "APOAPSIS": "840.907",
    "PERIAPSIS": "749.185",
    "OBJECT_TYPE": "DEBRIS",
    "RCS_SIZE": "SMALL",
    "COUNTRY_CODE": "US",
    "LAUNCH_DATE": "1961-06-29",
    "SITE": "AFETR",
    "DECAY_DATE": null,
    "FILE": "3231740",
    "GP_ID": "190989601",
    "TLE_LINE0": "0 THOR ABLESTAR DEB",
    "TLE_LINE1": "1 00469U 61015FF  21337.48289443  .00000277  00000-0  13957-3 0  9994",
    "TLE_LINE2": "2 00469  66.8332 157.6685 0063934 357.9151   2.1671 14.29009269115852"
  },
  {
    "CCSDS_OMM_VERS": "2.0",
    "COMMENT": "GENERATED VIA SPACE-TRACK.ORG API",
    "CREATION_DATE": "2021-12-03T17:32:05",
    "ORIGINATOR": "18 SPCS",
    "OBJECT_NAME": "THOR ABLESTAR DEB",
    "OBJECT_ID": "1961-015FG",
    "CENTER_NAME": "EARTH",
    "REF_FRAME": "TEME",
    "TIME_SYSTEM": "UTC",
    "MEAN_ELEMENT_THEORY": "SGP4",
    "EPOCH": "2021-12-03T12:39:44.033472",
    "MEAN_MOTION": "14.05628196",
    "ECCENTRICITY": "0.00762080",
    "INCLINATION": "66.2298",
    "RA_OF_ASC_NODE": "207.2259",
    "ARG_OF_PERICENTER": "245.7112",
    "MEAN_ANOMALY": "113.5996",
    "EPHEMERIS_TYPE": "0",
    "CLASSIFICATION_TYPE": "U",
    "NORAD_CAT_ID": "470",
    "ELEMENT_SET_NO": "999",
    "REV_AT_EPOCH": "7928",
    "BSTAR": "0.00034541000000",
    "MEAN_MOTION_DOT": "0.00000494",
    "MEAN_MOTION_DDOT": "0.0000000000000",
    "SEMIMAJOR_AXIS": "7252.508",
    "PERIOD": "102.445",
    "APOAPSIS": "929.643",
    "PERIAPSIS": "819.103",
    "OBJECT_TYPE": "DEBRIS",
    "RCS_SIZE": "SMALL",
    "COUNTRY_CODE": "US",
    "LAUNCH_DATE": "1961-06-29",
    "SITE": "AFETR",
    "DECAY_DATE": null,
    "FILE": "3231740",
    "GP_ID": "190989851",
    "TLE_LINE0": "0 THOR ABLESTAR DEB",
    "TLE_LINE1": "1 00470U 61015FG  21337.52759298  .00000494  00000-0  34541-3 0  9994",
    "TLE_LINE2": "2 00470  66.2298 207.2259 0076208 245.7112 113.5996 14.05628196 79280"
  },
  {
    "CCSDS_OMM_VERS": "2.0",
    "COMMENT": "GENERATED VIA SPACE-TRACK.ORG API",
    "CREATION_DATE": "2021-12-03T17:32:05",
    "ORIGINATOR": "18 SPCS",
    "OBJECT_NAME": "THOR ABLESTAR DEB",
    "OBJECT_ID": "1961-015FL",
    "CENTER_NAME": "EARTH",
    "REF_FRAME": "TEME",
    "TIME_SYSTEM": "UTC",
    "MEAN_ELEMENT_THEORY": "SGP4",
    "EPOCH": "2021-12-03T13:29:51.335808",
    "MEAN_MOTION": "14.80794800",
    "ECCENTRICITY": "0.00287090",
    "INCLINATION": "66.2479",
    "RA_OF_ASC_NODE": "63.2997",
    "ARG_OF_PERICENTER": "225.4420",
    "MEAN_ANOMALY": "240.2263",
    "EPHEMERIS_TYPE": "0",
    "CLASSIFICATION_TYPE": "U",
    "NORAD_CAT_ID": "474",
    "ELEMENT_SET_NO": "999",
    "REV_AT_EPOCH": "14505",
    "BSTAR": "0.00044627000000",
    "MEAN_MOTION_DOT": "0.00003350",
    "MEAN_MOTION_DDOT": "0.0000000000000",
    "SEMIMAJOR_AXIS": "7004.953",
    "PERIOD": "97.245",
    "APOAPSIS": "646.929",
    "PERIAPSIS": "606.708",
    "OBJECT_TYPE": "DEBRIS",
    "RCS_SIZE": "SMALL",
    "COUNTRY_CODE": "US",
    "LAUNCH_DATE": "1961-06-29",
    "SITE": "AFETR",
    "DECAY_DATE": null,
    "FILE": "3231740",
    "GP_ID": "190991102",
    "TLE_LINE0": "0 THOR ABLESTAR DEB",
    "TLE_LINE1": "1 00474U 61015FL  21337.56239972  .00003350  00000-0  44627-3 0  9994",
    "TLE_LINE2": "2 00474  66.2479  63.2997 0028709 225.4420 240.2263 14.80794800145057"
  },
  {
    "CCSDS_OMM_VERS": "2.0",
    "COMMENT": "GENERATED VIA SPACE-TRACK.ORG API",
    "CREATION_DATE": "2021-12-03T17:32:05",
    "ORIGINATOR": "18 SPCS",
    "OBJECT_NAME": "THOR ABLESTAR DEB",
    "OBJECT_ID": "1961-015FM",
    "CENTER_NAME": "EARTH",
    "REF_FRAME": "TEME",
    "TIME_SYSTEM": "UTC",
    "MEAN_ELEMENT_THEORY": "SGP4",
    "EPOCH": "2021-12-03T12:11:14.066016",
    "MEAN_MOTION": "14.11259648",
    "ECCENTRICITY": "0.01484130",
    "INCLINATION": "66.2298",
    "RA_OF_ASC_NODE": "20.4001",
    "ARG_OF_PERICENTER": "33.1696",
    "MEAN_ANOMALY": "327.8585",
    "EPHEMERIS_TYPE": "0",
    "CLASSIFICATION_TYPE": "U",
    "NORAD_CAT_ID": "475",
    "ELEMENT_SET_NO": "999",
    "REV_AT_EPOCH": "5312",
    "BSTAR": "0.00071991000000",
    "MEAN_MOTION_DOT": "0.00001358",
    "MEAN_MOTION_DDOT": "0.0000000000000",
    "SEMIMAJOR_AXIS": "7233.201",
    "PERIOD": "102.037",
    "APOAPSIS": "962.417",
    "PERIAPSIS": "747.716",
    "OBJECT_TYPE": "DEBRIS",
    "RCS_SIZE": "SMALL",
    "COUNTRY_CODE": "US",
    "LAUNCH_DATE": "1961-06-29",
    "SITE": "AFETR",
    "DECAY_DATE": null,
    "FILE": "3231740",
    "GP_ID": "190990853",
    "TLE_LINE0": "0 THOR ABLESTAR DEB",
    "TLE_LINE1": "1 00475U 61015FM  21337.50780169  .00001358  00000-0  71991-3 0  9998",
    "TLE_LINE2": "2 00475  66.2298  20.4001 0148413  33.1696 327.8585 14.11259648 53127"
  },
  {
    "CCSDS_OMM_VERS": "2.0",
    "COMMENT": "GENERATED VIA SPACE-TRACK.ORG API",
    "CREATION_DATE": "2021-12-03T17:32:05",
    "ORIGINATOR": "18 SPCS",
    "OBJECT_NAME": "THOR ABLESTAR DEB",
    "OBJECT_ID": "1961-015FQ",
    "CENTER_NAME": "EARTH",
    "REF_FRAME": "TEME",
    "TIME_SYSTEM": "UTC",
    "MEAN_ELEMENT_THEORY": "SGP4",
    "EPOCH": "2021-12-03T03:31:39.246528",
    "MEAN_MOTION": "14.58387533",
    "ECCENTRICITY": "0.00626030",
    "INCLINATION": "66.0717",
    "RA_OF_ASC_NODE": "243.7102",
    "ARG_OF_PERICENTER": "274.1271",
    "MEAN_ANOMALY": "85.2683",
    "EPHEMERIS_TYPE": "0",
    "CLASSIFICATION_TYPE": "U",
    "NORAD_CAT_ID": "478",
    "ELEMENT_SET_NO": "999",
    "REV_AT_EPOCH": "14026",
    "BSTAR": "0.00026951000000",
    "MEAN_MOTION_DOT": "0.00001175",
    "MEAN_MOTION_DDOT": "0.0000000000000",
    "SEMIMAJOR_AXIS": "7076.522",
    "PERIOD": "98.739",
    "APOAPSIS": "742.688",
    "PERIAPSIS": "654.086",
    "OBJECT_TYPE": "DEBRIS",
    "RCS_SIZE": "SMALL",
    "COUNTRY_CODE": "US",
    "LAUNCH_DATE": "1961-06-29",
    "SITE": "AFETR",
    "DECAY_DATE": null,
    "FILE": "3231740",
    "GP_ID": "190990101",
    "TLE_LINE0": "0 THOR ABLESTAR DEB",
    "TLE_LINE1": "1 00478U 61015FQ  21337.14698202  .00001175  00000-0  26951-3 0  9990",
    "TLE_LINE2": "2 00478  66.0717 243.7102 0062603 274.1271  85.2683 14.58387533140260"
  },
  {
    "CCSDS_OMM_VERS": "2.0",
    "COMMENT": "GENERATED VIA SPACE-TRACK.ORG API",
    "CREATION_DATE": "2021-12-03T23:36:11",
    "ORIGINATOR": "18 SPCS",
    "OBJECT_NAME": "THOR ABLESTAR DEB",
    "OBJECT_ID": "1961-015FR",
    "CENTER_NAME": "EARTH",
    "REF_FRAME": "TEME",
    "TIME_SYSTEM": "UTC",
    "MEAN_ELEMENT_THEORY": "SGP4",
    "EPOCH": "2021-12-03T04:18:02.665728",
    "MEAN_MOTION": "15.00250214",
    "ECCENTRICITY": "0.00055150",
    "INCLINATION": "66.6762",
    "RA_OF_ASC_NODE": "248.8155",
    "ARG_OF_PERICENTER": "17.2303",
    "MEAN_ANOMALY": "342.9017",
    "EPHEMERIS_TYPE": "0",
    "CLASSIFICATION_TYPE": "U",
    "NORAD_CAT_ID": "479",
    "ELEMENT_SET_NO": "999",
    "REV_AT_EPOCH": "12388",
    "BSTAR": "0.00087178000000",
    "MEAN_MOTION_DOT": "0.00010828",
    "MEAN_MOTION_DDOT": "0.0000000000000",
    "SEMIMAJOR_AXIS": "6944.261",
    "PERIOD": "95.984",
    "APOAPSIS": "569.956",
    "PERIAPSIS": "562.296",
    "OBJECT_TYPE": "DEBRIS",
    "RCS_SIZE": "SMALL",
    "COUNTRY_CODE": "US",
    "LAUNCH_DATE": "1961-06-29",
    "SITE": "AFETR",
    "DECAY_DATE": null,
    "FILE": "3231844",
    "GP_ID": "191015301",
    "TLE_LINE0": "0 THOR ABLESTAR DEB",
    "TLE_LINE1": "1   479U 61015FR  21337.17919752  .00010828  00000-0  87178-3 0  9993",
    "TLE_LINE2": "2   479  66.6762 248.8155 0005515  17.2303 342.9017 15.00250214123888"
  },
  {
    "CCSDS_OMM_VERS": "2.0",
    "COMMENT": "GENERATED VIA SPACE-TRACK.ORG API",
    "CREATION_DATE": "2021-12-04T06:46:11",
    "ORIGINATOR": "18 SPCS",
    "OBJECT_NAME": "THOR ABLESTAR DEB",
    "OBJECT_ID": "1961-015FS",
    "CENTER_NAME": "EARTH",
    "REF_FRAME": "TEME",
    "TIME_SYSTEM": "UTC",
    "MEAN_ELEMENT_THEORY": "SGP4",
    "EPOCH": "2021-12-04T01:10:35.743584",
    "MEAN_MOTION": "14.33602433",
    "ECCENTRICITY": "0.00803670",
    "INCLINATION": "66.2380",
    "RA_OF_ASC_NODE": "207.9860",
    "ARG_OF_PERICENTER": "112.3248",
    "MEAN_ANOMALY": "248.6392",
    "EPHEMERIS_TYPE": "0",
    "CLASSIFICATION_TYPE": "U",
    "NORAD_CAT_ID": "480",
    "ELEMENT_SET_NO": "999",
    "REV_AT_EPOCH": "11720",
    "BSTAR": "0.00024150000000",
    "MEAN_MOTION_DOT": "0.00000605",
    "MEAN_MOTION_DDOT": "0.0000000000000",
    "SEMIMAJOR_AXIS": "7157.852",
    "PERIOD": "100.446",
    "APOAPSIS": "837.242",
    "PERIAPSIS": "722.191",
    "OBJECT_TYPE": "DEBRIS",
    "RCS_SIZE": "SMALL",
    "COUNTRY_CODE": "US",
    "LAUNCH_DATE": "1961-06-29",
    "SITE": "AFETR",
    "DECAY_DATE": null,
    "FILE": "3232029",
    "GP_ID": "191043364",
    "TLE_LINE0": "0 THOR ABLESTAR DEB",
    "TLE_LINE1": "1   480U 61015FS  21338.04902481  .00000605  00000-0  24150-3 0  9996",
    "TLE_LINE2": "2   480  66.2380 207.9860 0080367 112.3248 248.6392 14.33602433117200"
  }
]
